[{"OBJECT_NAME":"IRIDIUM 169","OBJECT_ID":"2019-002E","EPOCH":"2026-03-09T22:14:17.748384","MEAN_MOTION":14.38612437,"ECCENTRICITY":0.00014131,"INCLINATION":86.4172,"RA_OF_ASC_NODE":66.6873,"ARG_OF_PERICENTER":82.9186,"MEAN_ANOMALY":277.2173,"EPHEMERIS_TYPE":0,"CLASSIFICATION_TYPE":"U","NORAD_CAT_ID":43926,"ELEMENT_SET_NO":999,"REV_AT_EPOCH":37595,"BSTAR":6.3248636e-5,"MEAN_MOTION_DOT":2.13e-6,"MEAN_MOTION_DDOT":0},{"OBJECT_NAME":"DELTA 1 DEB","OBJECT_ID":"1978-026FE","EPOCH":"2026-03-09T09:52:09.463296","MEAN_MOTION":14.06352437,"ECCENTRICITY":0.01768242,"INCLINATION":98.8135,"RA_OF_ASC_NODE":218.2582,"ARG_OF_PERICENTER":341.3898,"MEAN_ANOMALY":78.3706,"EPHEMERIS_TYPE":0,"CLASSIFICATION_TYPE":"U","NORAD_CAT_ID":13567,"ELEMENT_SET_NO":999,"REV_AT_EPOCH":19706,"BSTAR":0.0014238451,"MEAN_MOTION_DOT":2.663e-5,"MEAN_MOTION_DDOT":0}]
